CCSDS_OMM_VERS = 2.0
CREATION_DATE  = 
ORIGINATOR     = 

OBJECT_NAME    = SDA_1664
OBJECT_ID      = 2025-230A
CENTER_NAME    = EARTH
REF_FRAME      = TEME
TIME_SYSTEM    = UTC
MEAN_ELEMENT_THEORY = SGP/SGP4

EPOCH          = 2025-11-13T18:20:51.048672
MEAN_MOTION    = 13.84698964
ECCENTRICITY   = .000309
INCLINATION    = 81.3003
RA_OF_ASC_NODE = 51.4836
ARG_OF_PERICENTER = 43.3057
MEAN_ANOMALY   = 316.8342

EPHEMERIS_TYPE = 0
CLASSIFICATION_TYPE = U
NORAD_CAT_ID   = 65974
ELEMENT_SET_NO = 999
REV_AT_EPOCH   = 399
BSTAR          = .33318E-3
MEAN_MOTION_DOT = .386E-5
MEAN_MOTION_DDOT = 0

CCSDS_OMM_VERS = 2.0
CREATION_DATE  = 
ORIGINATOR     = 

OBJECT_NAME    = SDA_1665
OBJECT_ID      = 2025-230B
CENTER_NAME    = EARTH
REF_FRAME      = TEME
TIME_SYSTEM    = UTC
MEAN_ELEMENT_THEORY = SGP/SGP4

EPOCH          = 2025-11-13T19:43:03.509760
MEAN_MOTION    = 13.85429554
ECCENTRICITY   = .0004987
INCLINATION    = 81.3040
RA_OF_ASC_NODE = 51.4114
ARG_OF_PERICENTER = 84.9261
MEAN_ANOMALY   = 275.2465

EPHEMERIS_TYPE = 0
CLASSIFICATION_TYPE = U
NORAD_CAT_ID   = 65975
ELEMENT_SET_NO = 999
REV_AT_EPOCH   = 400
BSTAR          = .33434E-3
MEAN_MOTION_DOT = .393E-5
MEAN_MOTION_DDOT = 0

CCSDS_OMM_VERS = 2.0
CREATION_DATE  = 
ORIGINATOR     = 

OBJECT_NAME    = SDA_1666
OBJECT_ID      = 2025-230C
CENTER_NAME    = EARTH
REF_FRAME      = TEME
TIME_SYSTEM    = UTC
MEAN_ELEMENT_THEORY = SGP/SGP4

EPOCH          = 2025-11-13T20:07:02.305632
MEAN_MOTION    = 13.84627675
ECCENTRICITY   = .0002724
INCLINATION    = 81.3012
RA_OF_ASC_NODE = 51.4214
ARG_OF_PERICENTER = 40.8236
MEAN_ANOMALY   = 319.3125

EPHEMERIS_TYPE = 0
CLASSIFICATION_TYPE = U
NORAD_CAT_ID   = 65976
ELEMENT_SET_NO = 999
REV_AT_EPOCH   = 400
BSTAR          = .29842E-3
MEAN_MOTION_DOT = .347E-5
MEAN_MOTION_DDOT = 0

CCSDS_OMM_VERS = 2.0
CREATION_DATE  = 
ORIGINATOR     = 

OBJECT_NAME    = SDA_1667
OBJECT_ID      = 2025-230D
CENTER_NAME    = EARTH
REF_FRAME      = TEME
TIME_SYSTEM    = UTC
MEAN_ELEMENT_THEORY = SGP/SGP4

EPOCH          = 2025-11-13T19:59:31.280352
MEAN_MOTION    = 13.84878851
ECCENTRICITY   = .0003676
INCLINATION    = 81.3007
RA_OF_ASC_NODE = 51.4131
ARG_OF_PERICENTER = 53.7362
MEAN_ANOMALY   = 306.4134

EPHEMERIS_TYPE = 0
CLASSIFICATION_TYPE = U
NORAD_CAT_ID   = 65977
ELEMENT_SET_NO = 999
REV_AT_EPOCH   = 400
BSTAR          = .29537E-3
MEAN_MOTION_DOT = .345E-5
MEAN_MOTION_DDOT = 0

CCSDS_OMM_VERS = 2.0
CREATION_DATE  = 
ORIGINATOR     = 

OBJECT_NAME    = SDA_1668
OBJECT_ID      = 2025-230E
CENTER_NAME    = EARTH
REF_FRAME      = TEME
TIME_SYSTEM    = UTC
MEAN_ELEMENT_THEORY = SGP/SGP4

EPOCH          = 2025-11-13T19:41:48.950016
MEAN_MOTION    = 13.85471461
ECCENTRICITY   = .0004897
INCLINATION    = 81.3023
RA_OF_ASC_NODE = 51.4006
ARG_OF_PERICENTER = 87.7163
MEAN_ANOMALY   = 272.4555

EPHEMERIS_TYPE = 0
CLASSIFICATION_TYPE = U
NORAD_CAT_ID   = 65978
ELEMENT_SET_NO = 999
REV_AT_EPOCH   = 400
BSTAR          = .33518E-3
MEAN_MOTION_DOT = .394E-5
MEAN_MOTION_DDOT = 0

CCSDS_OMM_VERS = 2.0
CREATION_DATE  = 
ORIGINATOR     = 

OBJECT_NAME    = SDA_1669
OBJECT_ID      = 2025-230F
CENTER_NAME    = EARTH
REF_FRAME      = TEME
TIME_SYSTEM    = UTC
MEAN_ELEMENT_THEORY = SGP/SGP4

EPOCH          = 2025-11-13T19:48:47.012832
MEAN_MOTION    = 13.85238253
ECCENTRICITY   = .0004919
INCLINATION    = 81.3025
RA_OF_ASC_NODE = 51.4077
ARG_OF_PERICENTER = 74.7729
MEAN_ANOMALY   = 285.3972

EPHEMERIS_TYPE = 0
CLASSIFICATION_TYPE = U
NORAD_CAT_ID   = 65979
ELEMENT_SET_NO = 999
REV_AT_EPOCH   = 400
BSTAR          = .33042E-3
MEAN_MOTION_DOT = .387E-5
MEAN_MOTION_DDOT = 0

CCSDS_OMM_VERS = 2.0
CREATION_DATE  = 
ORIGINATOR     = 

OBJECT_NAME    = SDA_1670
OBJECT_ID      = 2025-230G
CENTER_NAME    = EARTH
REF_FRAME      = TEME
TIME_SYSTEM    = UTC
MEAN_ELEMENT_THEORY = SGP/SGP4

EPOCH          = 2025-11-13T20:01:27.059808
MEAN_MOTION    = 13.84815138
ECCENTRICITY   = .0003323
INCLINATION    = 81.3003
RA_OF_ASC_NODE = 51.4135
ARG_OF_PERICENTER = 49.9771
MEAN_ANOMALY   = 310.1677

EPHEMERIS_TYPE = 0
CLASSIFICATION_TYPE = U
NORAD_CAT_ID   = 65980
ELEMENT_SET_NO = 999
REV_AT_EPOCH   = 400
BSTAR          = .32667E-3
MEAN_MOTION_DOT = .38E-5
MEAN_MOTION_DDOT = 0

CCSDS_OMM_VERS = 2.0
CREATION_DATE  = 
ORIGINATOR     = 

OBJECT_NAME    = SDA_1671
OBJECT_ID      = 2025-230H
CENTER_NAME    = EARTH
REF_FRAME      = TEME
TIME_SYSTEM    = UTC
MEAN_ELEMENT_THEORY = SGP/SGP4

EPOCH          = 2025-11-13T19:44:59.125920
MEAN_MOTION    = 13.85364744
ECCENTRICITY   = .0004922
INCLINATION    = 81.3030
RA_OF_ASC_NODE = 51.4052
ARG_OF_PERICENTER = 81.8818
MEAN_ANOMALY   = 278.2898

EPHEMERIS_TYPE = 0
CLASSIFICATION_TYPE = U
NORAD_CAT_ID   = 65981
ELEMENT_SET_NO = 999
REV_AT_EPOCH   = 400
BSTAR          = .33988E-3
MEAN_MOTION_DOT = .398E-5
MEAN_MOTION_DDOT = 0

CCSDS_OMM_VERS = 2.0
CREATION_DATE  = 
ORIGINATOR     = 

OBJECT_NAME    = SDA_1672
OBJECT_ID      = 2025-230J
CENTER_NAME    = EARTH
REF_FRAME      = TEME
TIME_SYSTEM    = UTC
MEAN_ELEMENT_THEORY = SGP/SGP4

EPOCH          = 2025-11-13T19:57:10.638432
MEAN_MOTION    = 13.84957165
ECCENTRICITY   = .0004065
INCLINATION    = 81.3037
RA_OF_ASC_NODE = 51.4198
ARG_OF_PERICENTER = 55.4077
MEAN_ANOMALY   = 304.7463

EPHEMERIS_TYPE = 0
CLASSIFICATION_TYPE = U
NORAD_CAT_ID   = 65982
ELEMENT_SET_NO = 999
REV_AT_EPOCH   = 400
BSTAR          = .30739E-3
MEAN_MOTION_DOT = .359E-5
MEAN_MOTION_DDOT = 0

CCSDS_OMM_VERS = 2.0
CREATION_DATE  = 
ORIGINATOR     = 

OBJECT_NAME    = SDA_1673
OBJECT_ID      = 2025-230K
CENTER_NAME    = EARTH
REF_FRAME      = TEME
TIME_SYSTEM    = UTC
MEAN_ELEMENT_THEORY = SGP/SGP4

EPOCH          = 2025-11-13T19:39:14.174784
MEAN_MOTION    = 13.85557894
ECCENTRICITY   = .0005078
INCLINATION    = 81.3035
RA_OF_ASC_NODE = 51.4049
ARG_OF_PERICENTER = 92.1845
MEAN_ANOMALY   = 267.9894

EPHEMERIS_TYPE = 0
CLASSIFICATION_TYPE = U
NORAD_CAT_ID   = 65983
ELEMENT_SET_NO = 999
REV_AT_EPOCH   = 400
BSTAR          = .33355E-3
MEAN_MOTION_DOT = .393E-5
MEAN_MOTION_DDOT = 0

CCSDS_OMM_VERS = 2.0
CREATION_DATE  = 
ORIGINATOR     = 

OBJECT_NAME    = SDA_1674
OBJECT_ID      = 2025-230L
CENTER_NAME    = EARTH
REF_FRAME      = TEME
TIME_SYSTEM    = UTC
MEAN_ELEMENT_THEORY = SGP/SGP4

EPOCH          = 2025-11-13T19:43:57.838944
MEAN_MOTION    = 13.85399425
ECCENTRICITY   = .0004878
INCLINATION    = 81.3026
RA_OF_ASC_NODE = 51.4033
ARG_OF_PERICENTER = 83.8565
MEAN_ANOMALY   = 276.3148

EPHEMERIS_TYPE = 0
CLASSIFICATION_TYPE = U
NORAD_CAT_ID   = 65984
ELEMENT_SET_NO = 999
REV_AT_EPOCH   = 400
BSTAR          = .34465E-3
MEAN_MOTION_DOT = .404E-5
MEAN_MOTION_DDOT = 0

CCSDS_OMM_VERS = 2.0
CREATION_DATE  = 
ORIGINATOR     = 

OBJECT_NAME    = SDA_1675
OBJECT_ID      = 2025-230M
CENTER_NAME    = EARTH
REF_FRAME      = TEME
TIME_SYSTEM    = UTC
MEAN_ELEMENT_THEORY = SGP/SGP4

EPOCH          = 2025-11-13T20:04:03.168192
MEAN_MOTION    = 13.84727330
ECCENTRICITY   = .000317
INCLINATION    = 81.3003
RA_OF_ASC_NODE = 51.4158
ARG_OF_PERICENTER = 45.1779
MEAN_ANOMALY   = 314.9635

EPHEMERIS_TYPE = 0
CLASSIFICATION_TYPE = U
NORAD_CAT_ID   = 65985
ELEMENT_SET_NO = 999
REV_AT_EPOCH   = 400
BSTAR          = .29316E-3
MEAN_MOTION_DOT = .342E-5
MEAN_MOTION_DDOT = 0

