SDA_1664                
1 65974U 25230A   25317.76447973  .00000386  00000+0  33318-3 0  9995
2 65974  81.3003  51.4836 0003090  43.3057 316.8342 13.84698964  3995
SDA_1665                
1 65975U 25230B   25317.82156840  .00000393  00000+0  33434-3 0  9990
2 65975  81.3040  51.4114 0004987  84.9261 275.2465 13.85429554  4005
SDA_1666                
1 65976U 25230C   25317.83822113  .00000347  00000+0  29842-3 0  9992
2 65976  81.3012  51.4214 0002724  40.8236 319.3125 13.84627675  4002
SDA_1667                
1 65977U 25230D   25317.83300093  .00000345  00000+0  29537-3 0  9990
2 65977  81.3007  51.4131 0003676  53.7362 306.4134 13.84878851  4006
SDA_1668                
1 65978U 25230E   25317.82070544  .00000394  00000+0  33518-3 0  9993
2 65978  81.3023  51.4006 0004897  87.7163 272.4555 13.85471461  4004
SDA_1669                
1 65979U 25230F   25317.82554413  .00000387  00000+0  33042-3 0  9990
2 65979  81.3025  51.4077 0004919  74.7729 285.3972 13.85238253  4000
SDA_1670                
1 65980U 25230G   25317.83434097  .00000380  00000+0  32667-3 0  9993
2 65980  81.3003  51.4135 0003323  49.9771 310.1677 13.84815138  4003
SDA_1671                
1 65981U 25230H   25317.82290655  .00000398  00000+0  33988-3 0  9999
2 65981  81.3030  51.4052 0004922  81.8818 278.2898 13.85364744  4007
SDA_1672                
1 65982U 25230J   25317.83137313  .00000359  00000+0  30739-3 0  9990
2 65982  81.3037  51.4198 0004065  55.4077 304.7463 13.84957165  4005
SDA_1673                
1 65983U 25230K   25317.81891406  .00000393  00000+0  33355-3 0  9994
2 65983  81.3035  51.4049 0005078  92.1845 267.9894 13.85557894  4009
SDA_1674                
1 65984U 25230L   25317.82219721  .00000404  00000+0  34465-3 0  9996
2 65984  81.3026  51.4033 0004878  83.8565 276.3148 13.85399425  4006
SDA_1675                
1 65985U 25230M   25317.83614778  .00000342  00000+0  29316-3 0  9999
2 65985  81.3003  51.4158 0003170  45.1779 314.9635 13.84727330  4001
